NORAD_CAT_ID,OBJECT_NAME,OBJECT_TYPE,EPOCH,MEAN_MOTION,ECCENTRICITY,INCLINATION,RA_OF_ASC_NODE,ARG_OF_PERICENTER,MEAN_ANOMALY,BSTAR,MEAN_MOTION_DOT,MEAN_MOTION_DDOT,TLE_LINE0,TLE_LINE1,TLE_LINE2,SEMIMAJOR_AXIS,PERIOD,APOGEE,PERIGEE,DECAYED
55957.0,STARLINK-5884,PAYLOAD,2023-12-16 19:58:37,14.98363422,0.0002661,69.9984,156.5423,281.2061,78.8799,-0.00052826,-6.396e-05,0.0,0 STARLINK-5884,1 55957U 23037AV  23350.83238113 -.00006396  00000-0 -52826-3 0  9990,2 55957  69.9984 156.5423 0002661 281.2061  78.8799 14.98363422 42904,6950.09,96.105,573.804,570.105,0.0
55957.0,STARLINK-5884,PAYLOAD,2023-12-16 21:34:45,14.983636,0.0002572,69.9985,156.3747,277.0054,83.0813,-0.00051294,-6.213e-05,0.0,0 STARLINK-5884,1 55957U 23037AV  23350.89913919 -.00006213  00000-0 -51294-3 0  9996,2 55957  69.9985 156.3747 0002572 277.0054  83.0813 14.98363600 42574,6950.089,96.105,573.742,570.166,0.0
55957.0,STARLINK-5884,PAYLOAD,2023-12-17 11:59:58,14.98332113,0.000259,69.9987,154.8605,267.1457,92.9406,-1.7237e-05,-2.99e-06,0.0,0 STARLINK-5884,1 55957U 23037AV  23351.49998700 -.00000299  00000-0 -17237-4 0  9992,2 55957  69.9987 154.8605 0002590 267.1457  92.9406 14.98332113 43000,6950.186,96.107,573.851,570.251,0.0
55957.0,STARLINK-5884,PAYLOAD,2023-12-17 13:36:06,14.98331585,0.0002776,69.9987,154.6921,271.9556,88.1285,-5.1041e-06,-1.54e-06,0.0,0 STARLINK-5884,1 55957U 23037AV  23351.56674690 -.00000154  00000-0 -51041-5 0  9991,2 55957  69.9987 154.6921 0002776 271.9556  88.1285 14.98331585 42674,6950.188,96.107,573.982,570.124,0.0
55957.0,STARLINK-5884,PAYLOAD,2023-12-17 21:36:47,14.9833419,0.0002689,69.9987,153.8508,268.2248,91.8603,2.8279e-06,-5.9e-07,0.0,0 STARLINK-5884,1 55957U 23037AV  23351.90054423 -.00000059  00000-0  28279-5 0  9995,2 55957  69.9987 153.8508 0002689 268.2248  91.8603 14.98334190 42722,6950.18,96.107,573.914,570.176,0.0
55957.0,STARLINK-5884,PAYLOAD,2023-12-18 12:01:59,14.98331658,0.0002621,69.9989,152.3359,260.8592,99.2271,1.6384e-05,1.03e-06,0.0,0 STARLINK-5884,1 55957U 23037AV  23352.50138379  .00000103  00000-0  16384-4 0  9997,2 55957  69.9989 152.3359 0002621 260.8592  99.2271 14.98331658 43155,6950.188,96.107,573.874,570.231,0.0
55957.0,STARLINK-5884,PAYLOAD,2023-12-18 13:38:07,14.98331296,0.0002696,69.9989,152.1677,263.5991,96.4861,1.3367e-05,6.7e-07,0.0,0 STARLINK-5884,1 55957U 23037AV  23352.56814402  .00000067  00000-0  13367-4 0  9998,2 55957  69.9989 152.1677 0002696 263.5991  96.4861 14.98331296 42826,6950.189,96.107,573.928,570.18,0.0
55957.0,STARLINK-5884,PAYLOAD,2023-12-18 20:02:39,14.98332871,0.0002697,69.999,151.4947,263.5295,96.5557,1.1933e-05,4.9e-07,0.0,0 STARLINK-5884,1 55957U 23037AV  23352.83518267  .00000049  00000-0  11933-4 0  9995,2 55957  69.9990 151.4947 0002697 263.5295  96.5557 14.98332871 42865,6950.184,96.107,573.923,570.175,0.0
55957.0,STARLINK-5884,PAYLOAD,2023-12-19 12:04:00,14.98328416,0.0002614,69.9993,149.8118,260.0221,100.0643,-2.9019e-05,-4.39e-06,0.0,0 STARLINK-5884,1 55957U 23037AV  23353.50278595 -.00000439  00000-0 -29019-4 0  9996,2 55957  69.9993 149.8118 0002614 260.0221 100.0643 14.98328416 43306,6950.198,96.107,573.88,570.246,0.0
55957.0,STARLINK-5884,PAYLOAD,2023-12-19 13:40:08,14.98326888,0.0002679,69.9992,149.6437,255.6966,104.3896,-5.4049e-05,-7.38e-06,0.0,0 STARLINK-5884,1 55957U 23037AV  23353.56954739 -.00000738  00000-0 -54049-4 0  9996,2 55957  69.9992 149.6437 0002679 255.6966 104.3896 14.98326888 42974,6950.203,96.107,573.929,570.206,0.0
55957.0,STARLINK-5884,PAYLOAD,2023-12-20 12:06:01,14.98330925,0.0002756,69.9996,147.2881,256.7592,103.3259,-1.7199e-05,-2.98e-06,0.0,0 STARLINK-5884,1 55957U 23037AV  23354.50418447 -.00000298  00000-0 -17199-4 0  9998,2 55957  69.9996 147.2881 0002756 256.7592 103.3259 14.98330925 43451,6950.19,96.107,573.971,570.14,0.0
55957.0,STARLINK-5884,PAYLOAD,2023-12-20 13:42:09,14.98330797,0.0002762,69.9996,147.1197,256.926,103.1591,-1.7858e-05,-3.06e-06,0.0,0 STARLINK-5884,1 55957U 23037AV  23354.57094453 -.00000306  00000-0 -17858-4 0  9994,2 55957  69.9996 147.1197 0002762 256.9260 103.1591 14.98330797 43129,6950.19,96.107,573.975,570.136,0.0
55957.0,STARLINK-5884,PAYLOAD,2023-12-20 20:06:41,14.98331346,0.0002762,69.9999,146.4472,256.5694,103.5157,-1.0947e-05,-2.24e-06,0.0,0 STARLINK-5884,1 55957U 23037AV  23354.83798395 -.00000224  00000-0 -10947-4 0  9990,2 55957  69.9999 146.4472 0002762 256.5694 103.5157 14.98331346 43164,6950.189,96.107,573.973,570.134,0.0
55957.0,STARLINK-5884,PAYLOAD,2023-12-21 12:08:02,14.98344341,0.0002878,69.9998,144.7633,262.2801,97.8031,-0.00018231,-2.268e-05,0.0,0 STARLINK-5884,1 55957U 23037AV  23355.50558186 -.00002268  00000-0 -18231-3 0  9990,2 55957  69.9998 144.7633 0002878 262.2801  97.8031 14.98344341 43609,6950.149,96.106,574.014,570.013,0.0
55957.0,STARLINK-5884,PAYLOAD,2023-12-21 13:44:10,14.98326936,0.0002847,69.9997,144.5947,265.0054,95.078,9.7301e-05,1.068e-05,0.0,0 STARLINK-5884,1 55957U 23037AV  23355.57234335  .00001068  00000-0  97301-4 0  9995,2 55957  69.9997 144.5947 0002847 265.0054  95.0780 14.98326936 43275,6950.202,96.107,574.046,570.089,0.0
55957.0,STARLINK-5884,PAYLOAD,2023-12-21 20:08:42,14.98329826,0.0002884,69.9996,143.9217,262.3333,97.7498,5.001e-05,5.04e-06,0.0,0 STARLINK-5884,1 55957U 23037AV  23355.83938285  .00000504  00000-0  50010-4 0  9999,2 55957  69.9996 143.9217 0002884 262.3333  97.7498 14.98329826 43319,6950.193,96.107,574.063,570.054,0.0
55957.0,STARLINK-5884,PAYLOAD,2023-12-22 13:46:11,14.9832989,0.0002835,70.0,142.0706,261.2449,98.8389,-8.7584e-06,-1.97e-06,0.0,0 STARLINK-5884,1 55957U 23037AV  23356.57374446 -.00000197  00000-0 -87584-5 0  9991,2 55957  70.0000 142.0706 0002835 261.2449  98.8389 14.98329890 43427,6950.193,96.107,574.029,570.088,0.0
55957.0,STARLINK-5884,PAYLOAD,2023-12-22 20:10:43,14.9833015,0.0002791,69.9999,141.3966,264.038,96.0461,2.7109e-05,2.3e-06,0.0,0 STARLINK-5884,1 55957U 23037AV  23356.84078336  .00000230  00000-0  27109-4 0  9992,2 55957  69.9999 141.3966 0002791 264.0380  96.0461 14.98330150 43801,6950.192,96.107,573.997,570.118,0.0
55957.0,STARLINK-5884,PAYLOAD,2023-12-23 13:48:12,14.98329497,0.0002722,70.0,139.5449,262.8948,97.1901,-1.5931e-05,-2.83e-06,0.0,0 STARLINK-5884,1 55957U 23037AV  23357.57514415 -.00000283  00000-0 -15931-4 0  9996,2 55957  70.0000 139.5449 0002722 262.8948  97.1901 14.98329497 43579,6950.194,96.107,573.951,570.168,0.0
55957.0,STARLINK-5884,PAYLOAD,2023-12-23 18:36:36,14.98349806,0.0002537,70.0,139.04,264.6503,95.4367,-0.00034438,-4.202e-05,0.0,0 STARLINK-5884,1 55957U 23037AV  23357.77541966 -.00004202  00000-0 -34438-3 0  9996,2 55957  70.0000 139.0400 0002537 264.6503  95.4367 14.98349806 43946,6950.132,96.106,573.76,570.233,0.0
55957.0,STARLINK-5884,PAYLOAD,2023-12-23 20:12:44,14.98332025,0.0002725,69.9997,138.8701,259.1849,100.9004,5.0804e-06,-3.2e-07,0.0,0 STARLINK-5884,1 55957U 23037AV  23357.84218108 -.00000032  00000-0  50804-5 0  9996,2 55957  69.9997 138.8701 0002725 259.1849 100.9004 14.98332025 43619,6950.187,96.107,573.946,570.158,0.0
55957.0,STARLINK-5884,PAYLOAD,2023-12-24 13:50:13,14.98330212,0.0002848,69.9993,137.018,261.4565,98.6271,6.4149e-06,-1.6e-07,0.0,0 STARLINK-5884,1 55957U 23037AV  23358.57654203 -.00000016  00000-0  64149-5 0  9996,2 55957  69.9993 137.0180 0002848 261.4565  98.6271 14.98330212 43721,6950.192,96.107,574.037,570.078,0.0
55957.0,STARLINK-5884,PAYLOAD,2023-12-24 18:38:37,14.9833039,0.0002769,70.0,136.5136,257.9956,102.0892,5.0744e-05,5.13e-06,0.0,0 STARLINK-5884,1 55957U 23037AV  23358.77682050  .00000513  00000-0  50744-4 0  9995,2 55957  70.0000 136.5136 0002769 257.9956 102.0892 14.98330390 43753,6950.192,96.107,573.981,570.132,0.0
55957.0,STARLINK-5884,PAYLOAD,2023-12-25 12:16:06,14.98327969,0.0002717,69.9999,134.6623,256.6494,103.4362,-2.7973e-05,-4.27e-06,0.0,0 STARLINK-5884,1 55957U 23037AV  23359.51118403 -.00000427  00000-0 -27973-4 0  9998,2 55957  69.9999 134.6623 0002717 256.6494 103.4362 14.98327969 44209,6950.199,96.107,573.953,570.176,0.0
55957.0,STARLINK-5884,PAYLOAD,2023-12-25 13:52:14,14.9832815,0.0002797,70.0,134.4938,256.6833,103.4014,-4.4285e-05,-6.21e-06,0.0,0 STARLINK-5884,1 55957U 23037AV  23359.57794426 -.00000621  00000-0 -44285-4 0  9990,2 55957  70.0000 134.4938 0002797 256.6833 103.4014 14.98328150 43876,6950.199,96.107,574.008,570.12,0.0
55957.0,STARLINK-5884,PAYLOAD,2023-12-25 18:40:38,14.98326802,0.0002682,70.0004,133.99,255.5425,104.5437,-1.7651e-05,-3.04e-06,0.0,0 STARLINK-5884,1 55957U 23037AV  23359.77822481 -.00000304  00000-0 -17651-4 0  9990,2 55957  70.0004 133.9900 0002682 255.5425 104.5437 14.98326802 43908,6950.203,96.107,573.932,570.204,0.0
55957.0,STARLINK-5884,PAYLOAD,2023-12-26 10:41:58,14.98340358,0.0002785,70.0005,132.3083,257.8868,102.1979,-0.00015382,-1.928e-05,0.0,0 STARLINK-5884,1 55957U 23037AV  23360.44582086 -.00001928  00000-0 -15382-3 0  9991,2 55957  70.0005 132.3083 0002785 257.8868 102.1979 14.98340358 44340,6950.161,96.106,573.961,570.09,0.0
55957.0,STARLINK-5884,PAYLOAD,2023-12-26 13:54:15,14.98328967,0.0003018,70.0006,131.9718,263.494,96.5875,1.2281e-05,5.4e-07,0.0,0 STARLINK-5884,1 55957U 23037AV  23360.57934264  .00000054  00000-0  12281-4 0  9997,2 55957  70.0006 131.9718 0003018 263.4940  96.5875 14.98328967 44023,6950.196,96.107,574.159,569.964,0.0
55957.0,STARLINK-5884,PAYLOAD,2023-12-26 18:42:39,14.98329233,0.0003037,70.0005,131.4668,264.5538,95.5274,1.1824e-05,4.8e-07,0.0,0 STARLINK-5884,1 55957U 23037AV  23360.77962262  .00000048  00000-0  11824-4 0  9993,2 55957  70.0005 131.4668 0003037 264.5538  95.5274 14.98329233 44059,6950.195,96.107,574.171,569.949,0.0
55957.0,STARLINK-5884,PAYLOAD,2023-12-27 13:56:16,14.98327479,0.0002897,70.0005,129.4468,258.1683,101.9151,1.9202e-05,1.36e-06,0.0,0 STARLINK-5884,1 55957U 23037AV  23361.58074344  .00000136  00000-0  19202-4 0  9994,2 55957  70.0005 129.4468 0002897 258.1683 101.9151 14.98327479 44176,6950.201,96.107,574.079,570.052,0.0
